[{"OBJECT_NAME":"TIANMU-1 07","OBJECT_ID":"2023-101A","EPOCH":"2026-03-06T13:47:20.454720","MEAN_MOTION":15.29118809,"ECCENTRICITY":0.00046097,"INCLINATION":97.2728,"RA_OF_ASC_NODE":118.5929,"ARG_OF_PERICENTER":142.4105,"MEAN_ANOMALY":217.7458,"EPHEMERIS_TYPE":0,"CLASSIFICATION_TYPE":"U","NORAD_CAT_ID":57399,"ELEMENT_SET_NO":999,"REV_AT_EPOCH":14596,"BSTAR":0.00029794732,"MEAN_MOTION_DOT":8.352e-5,"MEAN_MOTION_DDOT":0},{"OBJECT_NAME":"STARLINK-35798","OBJECT_ID":"2025-247AD","EPOCH":"2026-03-09T14:19:18.221952","MEAN_MOTION":15.3019642,"ECCENTRICITY":8.11e-5,"INCLINATION":53.16,"RA_OF_ASC_NODE":191.5694,"ARG_OF_PERICENTER":69.5956,"MEAN_ANOMALY":290.5132,"EPHEMERIS_TYPE":0,"CLASSIFICATION_TYPE":"U","NORAD_CAT_ID":66292,"ELEMENT_SET_NO":999,"REV_AT_EPOCH":2101,"BSTAR":0.00085285,"MEAN_MOTION_DOT":0.00024982,"MEAN_MOTION_DDOT":0}]
